[{"OBJECT_NAME":"SARAL","OBJECT_ID":"2013-009A","EPOCH":"2026-03-09T22:48:24.420096","MEAN_MOTION":14.32828644,"ECCENTRICITY":0.00014927,"INCLINATION":98.5556,"RA_OF_ASC_NODE":256.7632,"ARG_OF_PERICENTER":179.752,"MEAN_ANOMALY":180.3665,"EPHEMERIS_TYPE":0,"CLASSIFICATION_TYPE":"U","NORAD_CAT_ID":39086,"ELEMENT_SET_NO":999,"REV_AT_EPOCH":68139,"BSTAR":7.1114041e-5,"MEAN_MOTION_DOT":1.5e-6,"MEAN_MOTION_DDOT":0},{"OBJECT_NAME":"CZ-6A DEB","OBJECT_ID":"2022-151YJ","EPOCH":"2026-03-09T21:32:43.716480","MEAN_MOTION":14.25382168,"ECCENTRICITY":0.00433067,"INCLINATION":98.803,"RA_OF_ASC_NODE":80.3253,"ARG_OF_PERICENTER":238.0901,"MEAN_ANOMALY":121.6063,"EPHEMERIS_TYPE":0,"CLASSIFICATION_TYPE":"U","NORAD_CAT_ID":55536,"ELEMENT_SET_NO":999,"REV_AT_EPOCH":16629,"BSTAR":0.0023997519,"MEAN_MOTION_DOT":5.673e-5,"MEAN_MOTION_DDOT":0}]
